*******************************************************************************
Ephemeris / WWW_USER Mon Mar 24 08:45:16 2025 Pasadena, USA      / Horizons    
*******************************************************************************
Target body name: (2018 OZ)                       {source: JPL#6}
Center body name: Earth (399)                     {source: DE441}
Center-site name: Mauna Kea
*******************************************************************************
Start time      : A.D. 2018-Sep-26 04:24:00.0000 UT      
Stop  time      : A.D. 2018-Sep-26 16:02:00.0000 UT      
Step-size       : 1 minutes
*******************************************************************************
Target pole/equ : undefined
Target radii    : undefined                                                    
Center geodetic : 204.5278, 19.8260847, 4.21024   {E-lon(deg),Lat(deg),Alt(km)}
Center cylindric: 204.5278, 6006.35451, 2151.0229 {E-lon(deg),Dxy(km),Dz(km)}
Center pole/equ : ITRF93                          {East-longitude positive}
Center radii    : 6378.137, 6378.137, 6356.752 km {Equator_a, b, pole_c}       
Target primary  : Sun
Vis. interferer : MOON (R_eq= 1737.400) km        {source: DE441}
Rel. light bend : Sun                             {source: DE441}
Rel. lght bnd GM: 1.3271E+11 km^3/s^2                                          
Small-body perts: Yes                             {source: SB441-N16}
Atmos refraction: NO (AIRLESS)
RA format       : HMS
Time format     : CAL 
Calendar mode   : Mixed Julian/Gregorian
RTS-only print  : NO       
EOP file        : eop.250321.p250617                                           
EOP coverage    : DATA-BASED 1962-JAN-20 TO 2025-MAR-21. PREDICTS-> 2025-JUN-16
Units conversion: 1 au= 149597870.700 km, c= 299792.458 km/s, 1 day= 86400.0 s 
Table cut-offs 1: Elevation (-90.0deg=NO ),Airmass (>38.000=NO), Daylight (YES)
Table cut-offs 2: Solar elongation (  0.0,180.0=NO ),Local Hour Angle( 0.0=NO )
Table cut-offs 3: RA/DEC angular rate (     0.0=NO )                           
*******************************************************************************
Initial IAU76/J2000 heliocentric ecliptic osculating elements (au, days, deg.):
  EPOCH=  2458323.5 ! 2018-Jul-24.00 (TDB)         Residual RMS= .14478        
   EC= .2444891433359997   QR= .7813773137930096   TP= 2458414.1453434308      
   OM= 132.5941973996665   W=  282.5797798661226   IN= 11.86066121595313       
  Equivalent ICRF heliocentric cartesian coordinates (au, au/d):
   X= 5.818664496311505E-01  Y=-8.413793559776328E-01  Z=-3.233166781784031E-01
  VX= 1.092981696788880E-02 VY= 1.198494789184266E-02 VZ= 1.554952570596135E-03
Asteroid physical parameters (km, seconds, rotational period in hours):        
   GM= n.a.                RAD= n.a.               ROTPER= n.a.                
   H= 24.9                 G= .150                 B-V= n.a.                   
                           ALBEDO= n.a.            STYP= n.a.                  
*******************************************************************************
 Date__(UT)__HR:MN     R.A._________(ICRF)_________DEC
******************************************************
$$SOE
 2018-Sep-26 10:33  m  09 15 42.967229 -15 00 19.19184
 2018-Sep-26 10:34  m  09 15 43.059194 -15 00 18.61587
 2018-Sep-26 10:35  m  09 15 43.151133 -15 00 18.04000
 2018-Sep-26 10:36  m  09 15 43.243045 -15 00 17.46421
 2018-Sep-26 10:37  m  09 15 43.334931 -15 00 16.88852
 2018-Sep-26 10:38  m  09 15 43.426790 -15 00 16.31291
 2018-Sep-26 10:39  m  09 15 43.518623 -15 00 15.73740
 2018-Sep-26 10:40  m  09 15 43.610429 -15 00 15.16197
 2018-Sep-26 10:41  m  09 15 43.702208 -15 00 14.58663
 2018-Sep-26 10:42  m  09 15 43.793960 -15 00 14.01138
 2018-Sep-26 10:43  m  09 15 43.885685 -15 00 13.43621
 2018-Sep-26 10:44  m  09 15 43.977383 -15 00 12.86114
 2018-Sep-26 10:45  m  09 15 44.069054 -15 00 12.28615
 2018-Sep-26 10:46  m  09 15 44.160697 -15 00 11.71124
 2018-Sep-26 10:47  m  09 15 44.252313 -15 00 11.13643
 2018-Sep-26 10:48  m  09 15 44.343902 -15 00 10.56169
 2018-Sep-26 10:49  m  09 15 44.435463 -15 00 09.98704
 2018-Sep-26 10:50  m  09 15 44.526996 -15 00 09.41248
 2018-Sep-26 10:51  m  09 15 44.618501 -15 00 08.83800
 2018-Sep-26 10:52  m  09 15 44.709978 -15 00 08.26360
 2018-Sep-26 10:53  m  09 15 44.801428 -15 00 07.68928
 2018-Sep-26 10:54  m  09 15 44.892849 -15 00 07.11505
 2018-Sep-26 10:55  m  09 15 44.984243 -15 00 06.54090
 2018-Sep-26 10:56  m  09 15 45.075607 -15 00 05.96683
 2018-Sep-26 10:57  m  09 15 45.166944 -15 00 05.39284
 2018-Sep-26 10:58  m  09 15 45.258252 -15 00 04.81893
 2018-Sep-26 10:59  m  09 15 45.349532 -15 00 04.24510
 2018-Sep-26 11:00  m  09 15 45.440783 -15 00 03.67135
 2018-Sep-26 11:01  m  09 15 45.532005 -15 00 03.09768
 2018-Sep-26 11:02  m  09 15 45.623199 -15 00 02.52409
 2018-Sep-26 11:03  m  09 15 45.714363 -15 00 01.95057
 2018-Sep-26 11:04  m  09 15 45.805499 -15 00 01.37713
 2018-Sep-26 11:05  m  09 15 45.896606 -15 00 00.80377
 2018-Sep-26 11:06  m  09 15 45.987683 -15 00 00.23049
 2018-Sep-26 11:07  m  09 15 46.078731 -14 59 59.65728
 2018-Sep-26 11:08  m  09 15 46.169750 -14 59 59.08415
 2018-Sep-26 11:09  m  09 15 46.260740 -14 59 58.51109
 2018-Sep-26 11:10  m  09 15 46.351700 -14 59 57.93810
 2018-Sep-26 11:11  m  09 15 46.442631 -14 59 57.36519
 2018-Sep-26 11:12  m  09 15 46.533532 -14 59 56.79235
 2018-Sep-26 11:13  m  09 15 46.624403 -14 59 56.21959
 2018-Sep-26 11:14  m  09 15 46.715244 -14 59 55.64690
 2018-Sep-26 11:15  m  09 15 46.806056 -14 59 55.07428
 2018-Sep-26 11:16  m  09 15 46.896838 -14 59 54.50173
 2018-Sep-26 11:17  m  09 15 46.987589 -14 59 53.92925
 2018-Sep-26 11:18  m  09 15 47.078311 -14 59 53.35684
 2018-Sep-26 11:19  m  09 15 47.169002 -14 59 52.78450
 2018-Sep-26 11:20  m  09 15 47.259663 -14 59 52.21223
 2018-Sep-26 11:21  m  09 15 47.350294 -14 59 51.64003
 2018-Sep-26 11:22  m  09 15 47.440894 -14 59 51.06790
 2018-Sep-26 11:23  m  09 15 47.531464 -14 59 50.49583
 2018-Sep-26 11:24  m  09 15 47.622003 -14 59 49.92384
 2018-Sep-26 11:25  m  09 15 47.712512 -14 59 49.35190
 2018-Sep-26 11:26  m  09 15 47.802990 -14 59 48.78004
 2018-Sep-26 11:27  m  09 15 47.893437 -14 59 48.20824
 2018-Sep-26 11:28  m  09 15 47.983854 -14 59 47.63651
 2018-Sep-26 11:29  m  09 15 48.074239 -14 59 47.06484
 2018-Sep-26 11:30  m  09 15 48.164593 -14 59 46.49323
 2018-Sep-26 11:31  m  09 15 48.254917 -14 59 45.92169
 2018-Sep-26 11:32  m  09 15 48.345209 -14 59 45.35021
 2018-Sep-26 11:33  m  09 15 48.435470 -14 59 44.77879
 2018-Sep-26 11:34  m  09 15 48.525700 -14 59 44.20743
 2018-Sep-26 11:35  m  09 15 48.615898 -14 59 43.63614
 2018-Sep-26 11:36  m  09 15 48.706065 -14 59 43.06491
 2018-Sep-26 11:37  m  09 15 48.796201 -14 59 42.49373
 2018-Sep-26 11:38  m  09 15 48.886305 -14 59 41.92262
 2018-Sep-26 11:39  m  09 15 48.976377 -14 59 41.35156
 2018-Sep-26 11:40  m  09 15 49.066418 -14 59 40.78057
 2018-Sep-26 11:41  m  09 15 49.156427 -14 59 40.20963
 2018-Sep-26 11:42  m  09 15 49.246404 -14 59 39.63875
 2018-Sep-26 11:43  m  09 15 49.336350 -14 59 39.06793
 2018-Sep-26 11:44  m  09 15 49.426263 -14 59 38.49716
 2018-Sep-26 11:45  m  09 15 49.516145 -14 59 37.92645
 2018-Sep-26 11:46  m  09 15 49.605994 -14 59 37.35580
 2018-Sep-26 11:47  m  09 15 49.695811 -14 59 36.78519
 2018-Sep-26 11:48  m  09 15 49.785597 -14 59 36.21465
 2018-Sep-26 11:49  m  09 15 49.875350 -14 59 35.64416
 2018-Sep-26 11:50  m  09 15 49.965070 -14 59 35.07372
 2018-Sep-26 11:51  m  09 15 50.054759 -14 59 34.50333
 2018-Sep-26 11:52  m  09 15 50.144415 -14 59 33.93300
 2018-Sep-26 11:53  m  09 15 50.234038 -14 59 33.36271
 2018-Sep-26 11:54  m  09 15 50.323630 -14 59 32.79248
 2018-Sep-26 11:55  m  09 15 50.413188 -14 59 32.22230
 2018-Sep-26 11:56  m  09 15 50.502714 -14 59 31.65217
 2018-Sep-26 11:57  m  09 15 50.592207 -14 59 31.08208
 2018-Sep-26 11:58  m  09 15 50.681668 -14 59 30.51205
 2018-Sep-26 11:59  m  09 15 50.771096 -14 59 29.94206
 2018-Sep-26 12:00  m  09 15 50.860491 -14 59 29.37213
 2018-Sep-26 12:01  m  09 15 50.949853 -14 59 28.80223
 2018-Sep-26 12:02  m  09 15 51.039182 -14 59 28.23239
 2018-Sep-26 12:03  m  09 15 51.128478 -14 59 27.66259
 2018-Sep-26 12:04  m  09 15 51.217742 -14 59 27.09284
 2018-Sep-26 12:05  m  09 15 51.306972 -14 59 26.52313
 2018-Sep-26 12:06  m  09 15 51.396169 -14 59 25.95347
 2018-Sep-26 12:07  m  09 15 51.485333 -14 59 25.38385
 2018-Sep-26 12:08  m  09 15 51.574464 -14 59 24.81427
 2018-Sep-26 12:09  m  09 15 51.663561 -14 59 24.24473
 2018-Sep-26 12:10  m  09 15 51.752625 -14 59 23.67524
 2018-Sep-26 12:11  m  09 15 51.841656 -14 59 23.10579
 2018-Sep-26 12:12  m  09 15 51.930654 -14 59 22.53638
 2018-Sep-26 12:13  m  09 15 52.019618 -14 59 21.96701
 2018-Sep-26 12:14  m  09 15 52.108548 -14 59 21.39768
 2018-Sep-26 12:15  m  09 15 52.197445 -14 59 20.82839
 2018-Sep-26 12:16  m  09 15 52.286309 -14 59 20.25914
 2018-Sep-26 12:17  m  09 15 52.375139 -14 59 19.68992
 2018-Sep-26 12:18  m  09 15 52.463935 -14 59 19.12074
 2018-Sep-26 12:19  m  09 15 52.552698 -14 59 18.55160
 2018-Sep-26 12:20  m  09 15 52.641427 -14 59 17.98250
 2018-Sep-26 12:21  m  09 15 52.730122 -14 59 17.41343
 2018-Sep-26 12:22  m  09 15 52.818783 -14 59 16.84440
 2018-Sep-26 12:23  m  09 15 52.907411 -14 59 16.27540
 2018-Sep-26 12:24  m  09 15 52.996004 -14 59 15.70644
 2018-Sep-26 12:25  m  09 15 53.084564 -14 59 15.13751
 2018-Sep-26 12:26  m  09 15 53.173090 -14 59 14.56861
 2018-Sep-26 12:27  m  09 15 53.261582 -14 59 13.99974
 2018-Sep-26 12:28  m  09 15 53.350040 -14 59 13.43091
 2018-Sep-26 12:29  m  09 15 53.438464 -14 59 12.86211
 2018-Sep-26 12:30  m  09 15 53.526854 -14 59 12.29333
 2018-Sep-26 12:31  m  09 15 53.615210 -14 59 11.72459
 2018-Sep-26 12:32  m  09 15 53.703531 -14 59 11.15588
 2018-Sep-26 12:33  m  09 15 53.791819 -14 59 10.58719
 2018-Sep-26 12:34  m  09 15 53.880072 -14 59 10.01854
 2018-Sep-26 12:35  m  09 15 53.968291 -14 59 09.44991
